ONEWEB-0113             
1 48050U 21025J   23071.40778522  .00000443  00000+0  11793-2 0  9998
2 48050  87.9097 197.3206 0001432 108.9513 251.1771 13.13473165 97008
ONEWEB-0112             
1 48051U 21025K   23071.39510324  .00000177  00000+0  44884-3 0  9993
2 48051  87.9092 197.2787 0001614 102.9489 257.1820 13.13473438 97010
ONEWEB-0156             
1 48052U 21025L   23071.40568100  .00000374  00000+0  98885-3 0  9990
2 48052  87.9099 197.3030 0001631 105.6325 254.4984 13.13470949 96999
ONEWEB-0161             
1 48053U 21025M   23071.37815557 -.00000191  00000+0 -55765-3 0  9997
2 48053  87.9097 197.2905 0001901 106.7672 253.3666 13.13468236 96929
ONEWEB-0158             
1 48054U 21025N   23071.34219350  .00000334  00000+0  87842-3 0  9992
2 48054  87.9097 197.3235 0001283 106.5523 253.5747 13.13472458 97040
ONEWEB-0157             
1 48055U 21025P   23071.36546863 -.00000194  00000+0 -56564-3 0  9990
2 48055  87.9089 197.2834 0001891 105.3483 254.7855 13.13471121 96984
ONEWEB-0162             
1 48056U 21025Q   23071.40356020  .00000387  00000+0  10235-2 0  9996
2 48056  87.9092 197.2774 0001640 103.2393 256.8919 13.13469790 96962
ONEWEB-0155             
1 48057U 21025R   23071.34853975  .00000292  00000+0  76519-3 0  9994
2 48057  87.9092 197.2915 0001611 108.0291 252.1014 13.13468528 97096
ONEWEB-0149             
1 48058U 21025S   23071.36969382 -.00000131  00000+0 -39482-3 0  9999
2 48058  87.9091 197.2863 0001823  92.5093 267.6245 13.13469509 96906
ONEWEB-0148             
1 48059U 21025T   23071.40989429  .00000502  00000+0  13389-2 0  9996
2 48059  87.9097 197.2852 0002344  91.0391 269.1007 13.13473286 97030
ONEWEB-0160             
1 48060U 21025U   23071.42682680  .00000181  00000+0  46091-3 0  9999
2 48060  87.9094 197.2801 0000473  92.9094 267.2089 13.13474180 96980
ONEWEB-0163             
1 48061U 21025V   23071.79290981  .00000399  00000+0  10564-2 0  9995
2 48061  87.9094 197.1966 0002090 107.3055 252.8303 13.13470134 97151
ONEWEB-0159             
1 48062U 21025W   23071.40144418  .00000320  00000+0  84110-3 0  9990
2 48062  87.9102 197.2928 0002123 104.5444 255.5920 13.13469856 97029
ONEWEB-0164             
1 48063U 21025X   23071.38238429 -.00000429  00000+0 -12098-2 0  9991
2 48063  87.9094 197.2734 0001563 114.6223 245.5069 13.13470565 97009
ONEWEB-0167             
1 48064U 21025Y   23071.79398153  .00000360  00000+0  94960-3 0  9999
2 48064  87.9095 197.1991 0001951 105.6232 254.5112 13.13470123 97049
ONEWEB-0166             
1 48065U 21025Z   23071.35912640  .00000044  00000+0  85253-4 0  9990
2 48065  87.9087 197.2854 0001789  99.9366 260.1965 13.13470674 97064
ONEWEB-0151             
1 48066U 21025AA  23071.81829599  .00000099  00000+0  23660-3 0  9995
2 48066  87.9085 197.1972 0001504  96.8228 263.3072 13.13472584 97078
ONEWEB-0170             
1 48067U 21025AB  23071.36758741 -.00000159  00000+0 -47152-3 0  9997
2 48067  87.9096 197.2848 0001124 131.1855 228.9371 13.13469700 96963
ONEWEB-0168             
1 48068U 21025AC  23071.35278263  .00000248  00000+0  64523-3 0  9991
2 48068  87.9095 197.3249 0001696 100.9781 259.1539 13.13469389 96971
ONEWEB-0173             
1 48069U 21025AD  23071.42260137  .00000385  00000+0  10203-2 0  9998
2 48069  87.9101 197.3238 0002058 119.3452 240.7883 13.13471645 97225
ONEWEB-0171             
1 48070U 21025AE  23071.38028034 -.00000153  00000+0 -45395-3 0  9999
2 48070  87.9098 197.2915 0001838 102.4553 257.6781 13.13470492 97035
ONEWEB-0172             
1 48071U 21025AF  23071.36231508 -.00000083  00000+0 -26241-3 0  9991
2 48071  87.9086 197.2804 0001731 118.8322 241.2981 13.13467722 97928
ONEWEB-0174             
1 48072U 21025AG  23071.42050386  .00000901  00000+0  24310-2 0  9993
2 48072  87.9087 197.2878 0001883  89.7908 270.3436 13.13470596 97252
ONEWEB-0175             
1 48073U 21025AH  23071.37180473 -.00000187  00000+0 -54561-3 0  9999
2 48073  87.9096 197.2833 0001418 124.0072 236.1192 13.13467054 96908
ONEWEB-0177             
1 48074U 21025AJ  23071.38451089 -.00000119  00000+0 -36146-3 0  9999
2 48074  87.9094 197.2807 0002342 111.4294 248.7085 13.13470708 97092
ONEWEB-0178             
1 48075U 21025AK  23071.40250503  .00000315  00000+0  82697-3 0  9999
2 48075  87.9098 197.2825 0001878 107.2558 252.8776 13.13472190 97142
ONEWEB-0108             
1 48076U 21025AL  23071.36334503 -.00000118  00000+0 -35806-3 0  9991
2 48076  87.9089 197.2856 0001463  97.9576 262.1719 13.13465619 97062
ONEWEB-0169             
1 48077U 21025AM  23071.39298351  .00000132  00000+0  32637-3 0  9998
2 48077  87.9098 197.2761 0001648  90.3602 269.7716 13.13469535 95722
ONEWEB-0176             
1 48210U 21031A   23072.17369004  .00000357  00000+0  92802-3 0  9994
2 48210  87.9124 166.8431 0001856 103.4114 256.7223 13.14500707 93008
ONEWEB-0184             
1 48211U 21031B   23071.76771724  .00000037  00000+0  65223-4 0  9998
2 48211  87.9130 166.8975 0001829 146.0186 214.1061 13.14505440 91635
ONEWEB-0179             
1 48212U 21031C   23071.27930618 -.00000040  00000+0 -14275-3 0  9990
2 48212  87.9126 166.9925 0002187 107.7225 252.4144 13.14503067 91611
ONEWEB-0180             
1 48213U 21031D   23071.31312230  .00000009  00000+0 -97125-5 0  9991
2 48213  87.9129 166.9844 0002066 106.0933 254.0425 13.14501642 91504
ONEWEB-0218             
1 48214U 21031E   23071.33427602  .00000296  00000+0  76314-3 0  9996
2 48214  87.9126 166.9882 0002419 140.0195 220.1113 13.14501840 91669
ONEWEB-0209             
1 48215U 21031F   23071.70430740  .00000273  00000+0  70136-3 0  9996
2 48215  87.9124 166.9477 0002020 104.8181 255.3173 13.14502894 91711
ONEWEB-0198             
1 48216U 21031G   23071.30889418 -.00000363  00000+0 -10125-2 0  9996
2 48216  87.9133 167.0367 0002236 122.0950 238.0397 13.14502767 91778
ONEWEB-0189             
1 48217U 21031H   23071.32157723  .00000359  00000+0  93351-3 0  9992
2 48217  87.9125 167.0188 0002344 118.6585 241.4781 13.14506678 91518
ONEWEB-0196             
1 48218U 21031J   23071.68103898 -.00000136  00000+0 -40139-3 0  9997
2 48218  87.9131 166.9350 0001888 113.9685 246.1643 13.14504306 91566
ONEWEB-0183             
1 48219U 21031K   23071.27295651  .00000074  00000+0  16642-3 0  9993
2 48219  87.9124 167.0348 0001938 103.3186 256.8160 13.14501172 91608
ONEWEB-0185             
1 48220U 21031L   23071.30151175 -.00000107  00000+0 -32331-3 0  9993
2 48220  87.9130 167.0058 0002066 107.0887 253.0469 13.14506966 91536
ONEWEB-0187             
1 48221U 21031M   23071.27612710  .00000014  00000+0  22056-5 0  9997
2 48221  87.9126 167.0358 0002038 105.9172 254.2182 13.14501623 91549
ONEWEB-0192             
1 48222U 21031N   23071.70641109  .00000279  00000+0  71773-3 0  9991
2 48222  87.9129 166.8973 0001924 114.8949 245.2381 13.14501888 91518
ONEWEB-0219             
1 48223U 21031P   23071.76350571 -.00000097  00000+0 -29587-3 0  9994
2 48223  87.9128 166.9218 0002014 104.5285 255.6068 13.14503836 91737
ONEWEB-0202             
1 48224U 21031Q   23071.28564585 -.00000079  00000+0 -24755-3 0  9996
2 48224  87.9124 167.0337 0002620 132.0792 228.0561 13.14503064 91645
ONEWEB-0204             
1 48225U 21031R   23071.26979034  .00000134  00000+0  32620-3 0  9994
2 48225  87.9123 167.0623 0001501  88.3824 271.7478 13.14506311 91537
ONEWEB-0205             
1 48226U 21031S   23072.20962295 -.00000123  00000+0 -36543-3 0  9999
2 48226  87.9131 166.8319 0002186 113.1740 246.9620 13.14501047 91680
ONEWEB-0206             
1 48227U 21031T   23071.26873048  .00000147  00000+0  36181-3 0  9994
2 48227  87.9126 167.0032 0002089 101.3198 258.8167 13.14501023 91501
ONEWEB-0182             
1 48228U 21031U   23072.17580517  .00000213  00000+0  54138-3 0  9998
2 48228  87.9128 166.8988 0001988  99.2053 260.9301 13.14500778 91840
ONEWEB-0186             
1 48229U 21031V   23072.18848656  .00000075  00000+0  16719-3 0  9990
2 48229  87.9130 166.8089 0001991 109.2448 250.8897 13.14504816 91799
ONEWEB-0181             
1 48230U 21031W   23071.32792194  .00000299  00000+0  77325-3 0  9990
2 48230  87.9130 167.0480 0001826 109.7502 250.3825 13.14506658 91525
ONEWEB-0188             
1 48231U 21031X   23071.74868992 -.00000538  00000+0 -14870-2 0  9990
2 48231  87.9123 166.9657 0002056 106.5300 253.6056 13.14501288 91480
ONEWEB-0220             
1 48232U 21031Y   23072.16734674  .00000285  00000+0  73293-3 0  9999
2 48232  87.9134 166.8448 0002278 104.3257 255.8126 13.14502484 91800
ONEWEB-0165             
1 48233U 21031Z   23071.28352619 -.00000045  00000+0 -15625-3 0  9998
2 48233  87.9126 167.0384 0002160 110.5833 249.5528 13.14506000 91649
ONEWEB-0199             
1 48234U 21031AA  23072.18002404  .00000221  00000+0  56047-3 0  9990
2 48234  87.9127 166.8359 0001983 107.4169 252.7178 13.14506570 91660
ONEWEB-0203             
1 48235U 21031AB  23071.25605208  .00000327  00000+0  84666-3 0  9994
2 48235  87.9129 167.0158 0001549 118.7297 241.3989 13.14503398 91555
ONEWEB-0197             
1 48236U 21031AC  23071.31947234  .00000204  00000+0  51476-3 0  9997
2 48236  87.9129 167.0126 0001914 109.1088 251.0249 13.14505397 91478
ONEWEB-0194             
1 48237U 21031AD  23071.28776106 -.00000149  00000+0 -43738-3 0  9994
2 48237  87.9128 167.0082 0001381 112.8948 247.2328 13.14496935 91644
ONEWEB-0193             
1 48238U 21031AE  23071.30467198 -.00000021  00000+0 -90179-4 0  9997
2 48238  87.9128 167.0153 0001932 116.4497 243.6831 13.14510317 91599
ONEWEB-0191             
1 48239U 21031AF  23071.31524965  .00000246  00000+0  62952-3 0  9999
2 48239  87.9129 166.9939 0001704 111.7083 248.4228 13.14502409 91458
ONEWEB-0195             
1 48240U 21031AG  23072.20645151 -.00000117  00000+0 -35115-3 0  9991
2 48240  87.9133 166.8141 0002248 116.3130 243.8231 13.14501125 91555
